{
    "links": {
        "self": "http://www.neowsapp.com/rest/v1/neo/54051182?api_key=iIulBulltgU6a56xZRHN4H3l9WmuAYTsLGpBGhQ2"
    },
    "id": "54051182",
    "neo_reference_id": "54051182",
    "name": "(2020 QK1)",
    "designation": "2020 QK1",
    "nasa_jpl_url": "http://ssd.jpl.nasa.gov/sbdb.cgi?sstr=54051182",
    "absolute_magnitude_h": 23.689,
    "estimated_diameter": {
        "kilometers": {
            "estimated_diameter_min": 0.0486132858,
            "estimated_diameter_max": 0.1087026117
        },
        "meters": {
            "estimated_diameter_min": 48.6132858365,
            "estimated_diameter_max": 108.70261174
        },
        "miles": {
            "estimated_diameter_min": 0.030206886,
            "estimated_diameter_max": 0.0675446506
        },
        "feet": {
            "estimated_diameter_min": 159.4924127037,
            "estimated_diameter_max": 356.635876701
        }
    },
    "is_potentially_hazardous_asteroid": false,
    "close_approach_data": [
        {
            "close_approach_date": "2020-08-14",
            "close_approach_date_full": "2020-Aug-14 00:51",
            "epoch_date_close_approach": 1597366260000,
            "relative_velocity": {
                "kilometers_per_second": "9.9897130864",
                "kilometers_per_hour": "35962.967110987",
                "miles_per_hour": "22345.9892029352"
            },
            "miss_distance": {
                "astronomical": "0.2461419272",
                "lunar": "95.7492096808",
                "kilometers": "36822308.026815064",
                "miles": "22880321.2332693232"
            },
            "orbiting_body": "Earth"
        }
    ],
    "orbital_data": {
        "orbit_id": "1",
        "orbit_determination_date": "2020-08-19 00:12:05",
        "first_observation_date": "2020-08-15",
        "last_observation_date": "2020-08-18",
        "data_arc_in_days": 3,
        "observations_used": 10,
        "orbit_uncertainty": "8",
        "minimum_orbit_intersection": ".234291",
        "jupiter_tisserand_invariant": "4.618",
        "epoch_osculation": "2459078.5",
        "eccentricity": ".1270728007227752",
        "semi_major_axis": "1.429524274191953",
        "inclination": "19.77707210856352",
        "ascending_node_longitude": "138.5320946161562",
        "orbital_period": "624.2890656511833",
        "perihelion_distance": "1.247870620969189",
        "perihelion_argument": "180.3145112461899",
        "aphelion_distance": "1.611177927414717",
        "perihelion_time": "2459067.669337649950",
        "mean_anomaly": "6.245565813251899",
        "mean_motion": ".5766559432279842",
        "equinox": "J2000",
        "orbit_class": {
            "orbit_class_type": "AMO",
            "orbit_class_description": "Near-Earth asteroid orbits similar to that of 1221 Amor",
            "orbit_class_range": "1.017 AU < q (perihelion) < 1.3 AU"
        }
    },
    "is_sentry_object": false
}